{
    "CCSDS_OMM_VERS": "3.0",
    "COMMENT": "GENERATED VIA SPACE-TRACK.ORG API",
    "CREATION_DATE": "2025-11-22T18:56:57",
    "ORIGINATOR": "18 SPCS",
    "OBJECT_NAME": "BEIDOU 3M1",
    "OBJECT_ID": "2017-069A",
    "CENTER_NAME": "EARTH",
    "REF_FRAME": "TEME",
    "TIME_SYSTEM": "UTC",
    "MEAN_ELEMENT_THEORY": "SGP4",
    "EPOCH": "2025-11-21T20:50:21.659136",
    "MEAN_MOTION": "1.86231249",
    "ECCENTRICITY": "0.00083523",
    "INCLINATION": "56.5089",
    "RA_OF_ASC_NODE": "69.9242",
    "ARG_OF_PERICENTER": "303.4401",
    "MEAN_ANOMALY": "56.4743",
    "EPHEMERIS_TYPE": "0",
    "CLASSIFICATION_TYPE": "U",
    "NORAD_CAT_ID": "43001",
    "ELEMENT_SET_NO": "999",
    "REV_AT_EPOCH": "5474",
    "BSTAR": "0.00000000000000",
    "MEAN_MOTION_DOT": "-0.00000041",
    "MEAN_MOTION_DDOT": "0.0000000000000",
    "SEMIMAJOR_AXIS": "27906.164",
    "PERIOD": "773.232",
    "APOAPSIS": "21551.337",
    "PERIAPSIS": "21504.721",
    "OBJECT_TYPE": "PAYLOAD",
    "RCS_SIZE": "LARGE",
    "COUNTRY_CODE": "PRC",
    "LAUNCH_DATE": "2017-11-05",
    "SITE": "XSC",
    "DECAY_DATE": null,
    "FILE": "4894246",
    "GP_ID": "303253945",
    "TLE_LINE0": "0 BEIDOU 3M1",
    "TLE_LINE1": "1 43001U 17069A   25325.86830624 -.00000041  00000-0  00000-0 0  9991",
    "TLE_LINE2": "2 43001  56.5089  69.9242 0008352 303.4401  56.4743  1.86231249 54743"
}